[Satellite]
VERSION=1.1
NAME=STARLINK-5127
NICKNAME=STARLINK-5127
TLE1=1 54010U 22125AY  22296.91667824 -.00062439  00000+0 -44260-3 0  9990
TLE2=2 54010  53.2217   2.4544 0001647  31.4769  39.4684 15.73260370  3202
STATUS=0
